,Contact Persons,Source,business_status,formatted_address,name,opening_hours,lat,lng
0,Rodrigo Carvalho,https://smoothcomp.com/en/club/6605,OPERATIONAL,"2440 Main St, Vancouver, BC V5T 3E2, Canada",Gracie Barra Vancouver,{'open_now': False},49.26339489999999,-123.1007528
1,Brendon May,https://smoothcomp.com/en/club/21170,OPERATIONAL,"4880 Tomken Rd, Mississauga, ON L4W 1J8, Canada",Battle Arts Academy,{'open_now': False},43.62536110000001,-79.6302803
2,Hannah Brown,https://smoothcomp.com/en/club/47454,OPERATIONAL,"6800 Kitimat Rd #27, Mississauga, ON L5N 5M1, Canada",Current Jiu Jitsu,{'open_now': False},43.60833,-79.73684999999999
3,Mario Decosta,https://smoothcomp.com/en/club/7888,OPERATIONAL,"76 Progress Dr ste 238, Stamford, CT 06902, United States",Carlson Gracie Team Stamford - CT,{'open_now': False},41.0535659,-73.561882
4,Eduardo Cadena,https://smoothcomp.com/en/club/14454,OPERATIONAL,"3738 Canada Wy, Burnaby, BC V5G 1G5, Canada",Burnaby Vancouver Jiu-Jitsu,{'open_now': False},49.2544227,-123.0219812
5,,https://smoothcomp.com/en/club/7735,OPERATIONAL,"401 N Warren St, Orwigsburg, PA 17961, United States",Boa Brazilian Jiu Jitsu LLC,{'open_now': False},40.6579221,-76.0997837
6,Pat Cooligan,https://smoothcomp.com/en/club/12007,OPERATIONAL,"432 Tralee Rd, Nepean, ON K2J 5Z7, Canada",The Resource Team,{'open_now': False},45.28655759999999,-75.735299
7,Nabil Salameh,https://smoothcomp.com/en/club/24572,OPERATIONAL,"9811 NE 15th Ave UNIT 101, Vancouver, WA 98665, United States",10th Planet Vancouver,{'open_now': False},45.6924995,-122.6562699
8,John Sawatzky,https://smoothcomp.com/en/club/6750,OPERATIONAL,"1185 California Ave #5, Brockville, ON K6V 7N5, Canada",Revelation Martial Arts and Fitness,{'open_now': False},44.6138073,-75.69359089999999
9,,https://smoothcomp.com/en/club/7789,OPERATIONAL,"1256 Granville St #1, Vancouver, BC V6Z 1M4, Canada",Lions MMA,{'open_now': False},49.2764825,-123.1270253
10,,https://smoothcomp.com/en/club/7780,OPERATIONAL,"2525 McCullough Rd, Nanaimo, BC V9S 4M9, Canada",Island Top Team Brazilian Jiu-Jitsu & MMA,{'open_now': False},49.1952999,-123.9805706
11,,https://smoothcomp.com/en/club/7816,OPERATIONAL,"2326 E Main St, Bridgeport, CT 06610, United States",Pure Martial Arts Fitness Academy,{'open_now': False},41.2064466,-73.1787042
12,Candace Robertson,https://smoothcomp.com/en/club/7806,OPERATIONAL,"1835 Gordon Dr Unit #100, Kelowna, BC V1Y 3H5, Canada",Pacific Top Team Martial Arts Kelowna,{'open_now': False},49.8825357,-119.4754518
13,Marco Costa,https://smoothcomp.com/en/club/38746,,,,,,
14,Fatima Eltassi,https://smoothcomp.com/en/club/7715,OPERATIONAL,"5186 80 Ave SE, Calgary, AB T2C 2X3, Canada",101 Academy Jiu Jitsu,{'open_now': False},50.980656,-113.9605526
15,,https://smoothcomp.com/en/club/7805,,,,,,
16,Jayden Raposo,https://smoothcomp.com/en/club/29632,OPERATIONAL,"2486 Dufferin St, York, ON M6B 3R1, Canada",Santos Brothers BJJ,{'open_now': False},43.7009553,-79.4521275
17,,https://smoothcomp.com/en/club/9925,OPERATIONAL,"3625 Bd du Curé-Labelle, Laval, QC H7T 1R6, Canada",Gracie Barra Laval - Brazilian Jiu-Jitsu,{'open_now': False},45.5710038,-73.7831894
18,Paul Tam,https://smoothcomp.com/en/club/52145,OPERATIONAL,"4451 No. 3 Rd #213, Richmond, BC V6X 2C3, Canada",CLF Kung Fu Club,,49.18125630000001,-123.1379497
19,Chris Poudrier,https://smoothcomp.com/en/club/6517,OPERATIONAL,"222 St Mary's Rd, Winnipeg, MB R2H 1J3, Canada","WAMMA NextGen (Wrestling, Jiu Jitsu, Boxing, Kickboxing)",{'open_now': False},49.8751683,-97.118414
20,,https://smoothcomp.com/en/club/8435,OPERATIONAL,"The Hub, 2375 Koksilah Rd, Duncan, BC V0R 2P2, Canada",South Island Brazilian Jiu Jitsu Academy,{'open_now': False},48.72983869999999,-123.6629343
21,,https://smoothcomp.com/en/club/22074,OPERATIONAL,"620 Steven Ct #3, Newmarket, ON L3Y 6Z2, Canada",York Judo & BJJ,{'open_now': False},44.0375632,-79.45416519999999
22,,https://smoothcomp.com/en/club/6251,OPERATIONAL,"1810 Carling Ave, Ottawa, ON K2A 1E2, Canada",Ottawa Academy of Martial Arts,{'open_now': False},45.3768046,-75.7548529
23,Cedric Co Ling,https://smoothcomp.com/en/club/7720,OPERATIONAL,"2625 Kingsway, Vancouver, BC V5R 5H4, Canada",Alliance Vancouver Brazilian Jiu Jitsu,{'open_now': False},49.2393283,-123.0519637
24,Nicholas Castiglia,https://smoothcomp.com/en/club/15840,OPERATIONAL,"250 City Centre Ave Unit 128, Ottawa, ON K1R 6K7, Canada",Gracie Barra Ottawa,{'open_now': False},45.40828250000001,-75.71878
25,GM Ricky WU,https://smoothcomp.com/en/club/40574,OPERATIONAL,"4400 Hazelbridge Way, Richmond, BC V6X 3R8, Canada",Wu's Taekwondo School,{'open_now': False},49.1816977,-123.1324325
26,,https://smoothcomp.com/en/club/22071,OPERATIONAL,"3507 Boulevard St François, Jonquière, QC G7X 2W5, Canada",Judokas Jonquiere,,48.4122381,-71.2266625
27,,https://smoothcomp.com/en/club/7768,OPERATIONAL,"20241 Fraser Hwy, Langley, BC V3A 4E7, Canada",Gracie Barra Langley,{'open_now': False},49.1060004,-122.6616989
28,,https://smoothcomp.com/en/club/7843,OPERATIONAL,"941 Ellery St, Esquimalt, BC V9A 4R3, Canada",Van Isle Brazilian Jiu Jitsu,{'open_now': False},48.4371376,-123.4018782
29,Ariel Sommers,https://smoothcomp.com/en/club/7811,OPERATIONAL,"1760 Byland Rd #2, West Kelowna, BC V4T 3C3, Canada",Pacific Top Team West Kelowna,{'open_now': False},49.8608885,-119.5899541
30,Blake Mcvittie,https://smoothcomp.com/en/club/7849,OPERATIONAL,"1855 Blanshard St, Victoria, BC V8T 4H9, Canada",Zuma Ultimate Martial Arts,{'open_now': False},48.4306016,-123.3613527
31,Rodrigo Resende,https://smoothcomp.com/en/club/7823,CLOSED_TEMPORARILY,"21 Algarve Crescent, Toronto, ON M6N 5E7, Canada",Rodrigo school,,43.6787412,-79.46601009999999
32,,https://smoothcomp.com/en/club/7807,OPERATIONAL,"99 Padmore Ave E, Penticton, BC V2A 7H7, Canada",Pacific Top Team Penticton,{'open_now': False},49.49609299999999,-119.590177
33,Chris Merten,https://smoothcomp.com/en/club/7722,OPERATIONAL,"2650 36 St SE #11, Calgary, AB T2B 0Y3, Canada",Anderson Goncalves BJJ (Calgary),{'open_now': False},51.0307039,-113.9810751
34,,https://smoothcomp.com/en/club/10123,OPERATIONAL,"2485 Bd Sainte-Anne #202, Québec, QC G1J 1Y4, Canada",Novagym,{'open_now': False},46.8447748,-71.2178971
35,Fabiano Freitas,https://smoothcomp.com/en/club/13660,OPERATIONAL,"100 Bridgeland Ave, North York, ON M6A 1Z4, Canada",Gracie Barra Brazilian Jiu-Jitsu,{'open_now': False},43.726352,-79.4619522
36,James Haourt,https://smoothcomp.com/en/club/14273,OPERATIONAL,"4056 Meadowbrook Dr Unit 109, London, ON N6E 2Z8, Canada",Progression BJJ - Brazilian Jiu-Jitsu,{'open_now': False},42.9204161,-81.2656903
37,Ryan McGillivray,https://smoothcomp.com/en/club/7765,OPERATIONAL,"1712 Hyde Park Rd Unit 103, London, ON N6H 5L7, Canada",Gracie Barra London,{'open_now': False},43.0014394,-81.33468049999999
38,Emerson Lopes Junior,https://smoothcomp.com/en/club/42012,OPERATIONAL,"1908 Sharpe's Ln Room #103, Brockville, ON K6V 5T1, Canada",Lopes Brazilian Jiu-Jitsu,{'open_now': False},44.6121947,-75.6532103
39,TRI NGUYEN,https://smoothcomp.com/en/club/6246,OPERATIONAL,"275 Sherbrooke St W, Montreal, Quebec H2X 1Y1, Canada",Carlson Gracie Team Montreal,{'open_now': False},45.508823,-73.571212
40,Randy Chung,https://smoothcomp.com/en/club/7786,OPERATIONAL,"4127 6 St NE, Calgary, AB T2E 6V5, Canada",The Kodokan Jiu-jitsu Club,{'open_now': False},51.0893496,-114.0486466
41,Dylan Tooke,https://smoothcomp.com/en/club/8367,OPERATIONAL,"1444 Glenora Dr, London, ON N5X 1V2, Canada",Modern Martial Arts Academy,{'open_now': False},43.035817,-81.23579149999999
42,Joe Pilmer,https://smoothcomp.com/en/club/7196,OPERATIONAL,"55 Bentley St, Saint John, NB E2K 1B2, Canada",MXT Fight Academy,{'open_now': False},45.2688431,-66.079644
43,,https://smoothcomp.com/en/club/7810,OPERATIONAL,"3105 28 St, Vernon, BC V1T 4Z7, Canada",Pacific Top Team Vernon Brazilian Jiu-Jitsu and MMA,{'open_now': False},50.2652064,-119.2674775
44,Amy Pon,https://smoothcomp.com/en/club/13390,OPERATIONAL,"Hamilton, ON, Canada",Strathcona Loop,,43.263975,-79.884177
45,Samuel Bergeron,https://smoothcomp.com/en/club/9930,,,,,,
46,,https://smoothcomp.com/en/club/7783,OPERATIONAL,"8556 120 St #111, Surrey, BC V3W 3N5, Canada",Kaboom Brazilian Jiu-Jitsu,{'open_now': False},49.1578942,-122.8898493
47,Lisa Baxter,https://smoothcomp.com/en/club/7361,OPERATIONAL,"36 Inglis Pl, Truro, NS B2N 4B4, Canada",Marmac Athletics,,45.3639719,-63.27643690000001
48,Eduardo Jovel,https://smoothcomp.com/en/club/9309,OPERATIONAL,"#138, 1959 152 St, Surrey, BC V4A 9E3, Canada",Gracie Barra White Rock Brazilian Jiu Jitsu & Self Defense,{'open_now': False},49.0382587,-122.8018007
49,Rodrigo Goncales,https://smoothcomp.com/en/club/4214,OPERATIONAL,"295 College St Level B, Toronto, ON M5T 1S2, Canada",OpenMat MMA,{'open_now': False},43.65757079999999,-79.4013045
50,Carlos Costa Da Cunha,https://smoothcomp.com/en/club/6713,OPERATIONAL,"Kitchener, ON N2G 2T6, Canada",Canadian Martial Arts Centre,,43.4445929,-80.49041419999999
51,Aaron Esdon,https://smoothcomp.com/en/club/31804,OPERATIONAL,"561 Southdale Rd E #13, London, ON N6E 3M7, Canada",Platinum Training Facility,{'open_now': False},42.9420565,-81.23546379999999
52,,https://smoothcomp.com/en/club/22043,OPERATIONAL,"6920 Wellington Rd 124, Guelph, ON N1H 6J4, Canada",Shidokan Canada Karate,{'open_now': False},43.4793486,-80.2977203
53,MICHAEL KITSON,https://smoothcomp.com/en/club/6259,,,,,,
54,Marc Perrier,https://smoothcomp.com/en/club/6856,OPERATIONAL,"1045 Trillium Dr Unit#3, Kitchener, ON N2R 0A2, Canada",Leading Edge Control Solutions Inc.,{'open_now': False},43.4026641,-80.4863664
55,,https://smoothcomp.com/en/club/7747,,,,,,
56,EMMA MACLEAN,https://smoothcomp.com/en/club/6245,OPERATIONAL,"Av. das Américas, 14205 - sobreloja - Recreio dos Bandeirantes, Rio de Janeiro - RJ, 22790-701, Brazil",Nova União Recreio,{'open_now': False},-23.0104931,-43.4497186
57,Gary Vig,https://smoothcomp.com/en/club/7727,OPERATIONAL,"4940 54 Ave, Red Deer, AB T4N 6J3, Canada","Arashi Do Martial Arts, Red Deer",{'open_now': False},52.2714043,-113.8198982
58,Kevin Yang,https://smoothcomp.com/en/club/7769,OPERATIONAL,"11939 88 Ave, Delta, BC V4C 3C9, Canada",World Martial Arts: Gracie Barra Brazilian Jiu Jitsu (BJJ) & Taekwondo,{'open_now': False},49.1636184,-122.8919367
59,BROCK WHITEHEAD,https://smoothcomp.com/en/club/6023,OPERATIONAL,"2921A Blvd. de la Concorde E, Laval, QC H7E 2B5, Canada",Brazilian Top Team Canada Laval,,45.5918928,-73.6701585
60,Michael Simmins,https://smoothcomp.com/en/club/7745,OPERATIONAL,"1033 North Service Rd E, Oakville, ON L6H 1A6, Canada",Champions Martial Arts - Taekwondo,{'open_now': False},43.4692799,-79.6770755
61,Marco Costa,https://smoothcomp.com/en/club/38728,OPERATIONAL,"400 Morobel Dr #1, Milton, ON L9T 4N6, Canada",Submissions Brazilian Jiu Jitsu Academy,{'open_now': False},43.51917450000001,-79.8980912
62,,https://smoothcomp.com/en/club/22033,OPERATIONAL,"200 Connie Crescent #10, Concord, ON L4K 1M1, Canada",Challenge Sports Club,{'open_now': False},43.8205657,-79.486217
63,Madeline Laporte,https://smoothcomp.com/en/club/14642,OPERATIONAL,"112 Commerce Park Dr, Barrie, ON L4N 8W8, Canada",Submission Arts Academy,{'open_now': False},44.3242866,-79.68904479999999
64,Kane Pereira,https://smoothcomp.com/en/club/15342,OPERATIONAL,"416 Moore Ave suite 102/103/105, Toronto, ON M4G 1C9, Canada",Greenwood Jiu Jitsu Leaside Toronto,{'open_now': False},43.697159,-79.371054
65,Matt Blank,https://smoothcomp.com/en/club/20991,OPERATIONAL,"101 South La Cañada Drive #45, Green Valley, AZ 85614, United States",Undisputed | Green Valley Gym | Jiu Jitsu - Boxing - Kickboxing - Fitness,{'open_now': False},31.8683299,-110.9931077
66,Jordan McKay,https://smoothcomp.com/en/club/7733,,,,,,
67,Cody Ries,https://smoothcomp.com/en/club/7784,OPERATIONAL,"12034 Fort Rd NW, Edmonton, AB T5B 4H1, Canada",Kamikaze Punishment Foundation,{'open_now': False},53.5744362,-113.4605586
68,Jim Tran,https://smoothcomp.com/en/club/38105,OPERATIONAL,"343 Rodick Rd unit 2, Markham, ON L6G 1B1, Canada",Trillium MMA - Markham,{'open_now': False},43.8347086,-79.3457585
69,,https://smoothcomp.com/en/club/22022,OPERATIONAL,"87 Rue Émilien Marcoux #108, Blainville, Quebec J7C 0B4, Canada",Judo Blainville,{'open_now': False},45.6731219,-73.90319509999999
70,Nikolai Smith,https://smoothcomp.com/en/club/15952,OPERATIONAL,"2100 Ontario St E, Montreal, Quebec H2K 1V5, Canada",Brigada Jiu-Jitsu Brésilien Bjj,{'open_now': False},45.528154,-73.5570974
71,Jesse Veltri,https://smoothcomp.com/en/club/6826,OPERATIONAL,"BJJ Gym, 486 Evans Ave. Unit 11, Etobicoke, ON M8W 2T7, Canada",10th Planet Jiu-Jitsu Etobicoke | BJJ | No-Gi Brazilian Jiu Jitsu,{'open_now': False},43.6139717,-79.53759989999999
72,,https://smoothcomp.com/en/club/49010,OPERATIONAL,"19 McEwan Dr W Unit 7-8, Bolton, ON L7E 1G2, Canada",Canadian Black Belt Academy,{'open_now': False},43.859108,-79.7171573
73,Alex Macdonald,https://smoothcomp.com/en/club/11360,OPERATIONAL,"32 Dexter Ct, Mount William, NS B2H 5C6, Canada",Pictou County Jiu Jitsu,{'open_now': False},45.576959,-62.68818630000001
74,,https://smoothcomp.com/en/club/3385,OPERATIONAL,"465 George St, Sydney, NS B1P 1K5, Canada",ZombieProof Brazilian Jiu-Jitsu & Mixed Martial Arts,{'open_now': False},46.1373242,-60.1917227
75,Jason Thibert,https://smoothcomp.com/en/club/6902,,,,,,
76,,https://smoothcomp.com/en/club/7751,OPERATIONAL,"40 Chisholm Ave #60, St. Albert, AB T8N 7K6, Canada",Complete Fitness and Martial Arts,{'open_now': False},53.6368932,-113.570703
77,,https://smoothcomp.com/en/club/22070,OPERATIONAL,"1760 Av. Gilles-Villeneuve, Trois-Rivières, QC G9A 5H3, Canada",Club De Judo Seikidokan Inc,{'open_now': False},46.3479652,-72.55973809999999
78,Diaz Sports,https://smoothcomp.com/en/club/17093,OPERATIONAL,"276 E Pender St, Vancouver, BC V6A 1T7, Canada",DCS - Diaz Combat Sports,{'open_now': False},49.2800881,-123.0979441
79,,https://smoothcomp.com/en/club/4236,OPERATIONAL,"174 Horseshoe Lake Dr, Halifax, NS B3S 1H2, Canada",Titan's Fitness Academy,{'open_now': False},44.64109209999999,-63.6731386
80,Damyen Reid,https://smoothcomp.com/en/club/7511,OPERATIONAL,"930 E Division St, Coal City, IL 60416, United States",Scheer's Insurance Services LLC,{'open_now': False},41.2881857,-88.2704787
81,,https://smoothcomp.com/en/club/7846,OPERATIONAL,"851 Johnson St, Victoria, BC V8W 1R9, Canada",West Coast Brazilian Jiu Jitsu Victoria,{'open_now': False},48.426339,-123.3596538
82,,https://smoothcomp.com/en/club/10130,OPERATIONAL,"15724 Pierrefonds Blvd., Pierrefonds, Quebec H9H 3P6, Canada",West-Island Jiu-Jitsu Ouest De L'île,{'open_now': False},45.4793393,-73.8656434
83,Santiago Estevez,https://smoothcomp.com/en/club/39771,OPERATIONAL,"10 Rue Belmont, Gatineau, QC J9H 6J5, Canada",EBO - Martial Arts School Outaouais,{'open_now': False},45.39423,-75.830209
84,Dave Isaacs,https://smoothcomp.com/en/club/31265,OPERATIONAL,"7500 ON-27 #25, Woodbridge, ON L4H 0J2, Canada","Gracie Woodbridge, Brazilian Jiu-Jitsu, Muay Thai & Self Defense Academy",{'open_now': False},43.7705868,-79.6219198
85,Jeffrey Baugh,https://smoothcomp.com/en/club/19055,OPERATIONAL,"2107 Corydon Pike building a, New Albany, IN 47150, United States",Southern Indiana Martial Arts,{'open_now': False},38.2780588,-85.8512149
86,Kevin Deamond,https://smoothcomp.com/en/club/7725,,,,,,
87,Gage Garand,https://smoothcomp.com/en/club/8103,OPERATIONAL,"10016 110 Ave #111, Grande Prairie, AB T8V 8L4, Canada",The Komodo Academy (North Location),{'open_now': False},55.1798357,-118.7964631
88,,https://smoothcomp.com/en/club/7818,OPERATIONAL,"1735 Dolphin Ave #140, Kelowna, BC V1Y 8A6, Canada",RDC Jiu Jitsu Academy,{'open_now': False},49.878687,-119.4596241
89,SIMON POIRIER,https://smoothcomp.com/en/club/6249,OPERATIONAL,"903 E Rte 66 a, Glendora, CA 91740, United States",Sampa Jiu Jitsu and Martial Arts,{'open_now': False},34.1292163,-117.8500305
90,,https://smoothcomp.com/en/club/9936,OPERATIONAL,"6045 Bd Monk, Montréal, QC H4E 3H5, Canada",H2O MMA,{'open_now': False},45.457805,-73.59592169999999
91,Dave Shaw,https://smoothcomp.com/en/club/13186,OPERATIONAL,"1267 Garrison Rd, Fort Erie, ON L2A 1P2, Canada",Academix Academy Fort Erie,,42.9043396,-78.96281599999999
92,Clayton Bundschuh,https://smoothcomp.com/en/club/7774,OPERATIONAL,"12824 Anvil Way, Surrey, BC V3W 8E7, Canada",Gravity Brazilian Jiu-Jitsu,{'open_now': False},49.144267,-122.8678209
93,,https://smoothcomp.com/en/club/37093,OPERATIONAL,"2304 Lakeshore Rd W, Oakville, ON L6L 1H3, Canada",Aegis MMA,{'open_now': False},43.3978122,-79.7070491
94,,https://smoothcomp.com/en/club/37243,OPERATIONAL,"7500 ON-27 #25, Woodbridge, ON L4H 0J2, Canada","Gracie Woodbridge, Brazilian Jiu-Jitsu, Muay Thai & Self Defense Academy",{'open_now': False},43.7705868,-79.6219198
95,,https://smoothcomp.com/en/club/8603,OPERATIONAL,"814 Brunette Ave Unit B, Coquitlam, BC V3K 1C4, Canada",True North Jiu Jitsu Academy,{'open_now': False},49.2355755,-122.8742681
96,Liam Twinem,https://smoothcomp.com/en/club/49444,OPERATIONAL,"222 W 21st St, Norfolk, VA 23517, United States",Clayton Phillips Jiu Jitsu,{'open_now': False},36.868615,-76.28715
97,,https://smoothcomp.com/en/club/8192,CLOSED_PERMANENTLY,"11500 170 St NW, Edmonton, AB T5S 1J7, Canada",Legends Training Centre,,53.56474919999999,-113.6173791
98,Danny Fung,https://smoothcomp.com/en/club/9920,OPERATIONAL,"360 Bd Maloney O unité 3, Gatineau, QC J8P 7R5, Canada",Experience MMA & Fitness,{'open_now': False},45.4831896,-75.6619108
99,Tylor Nicholson,https://smoothcomp.com/en/club/8511,OPERATIONAL,"910 Sherwood Ave, Coquitlam, BC V3K 1A6, Canada",Titan Training Centre,{'open_now': False},49.2356625,-122.8721457
100,,https://smoothcomp.com/en/club/7352,OPERATIONAL,"Niagara Falls, NY 14304, United States",Jiu Jitsu For Life Team,,43.0897789,-79.000252
101,,https://smoothcomp.com/en/club/22067,OPERATIONAL,"75 Centennial Rd, Ajax, ON L1S 4H4, Canada",Ajax Budokan Judo Club,{'open_now': False},43.8394197,-79.0204524
102,Mike Martelle,https://smoothcomp.com/en/club/15257,OPERATIONAL,"550 Cataraqui Woods Dr, Kingston, ON K7P 2Y5, Canada",Grizzly Gym,{'open_now': False},44.2684889,-76.5635276
103,VICTOR RODRIGUEZ,https://smoothcomp.com/en/club/31337,,,,,,
104,Allan Clarke,https://smoothcomp.com/en/club/8016,OPERATIONAL,"5630 Tomken Rd Unit 4, Mississauga, ON L4W 2S4, Canada",Kombat Arts Training Academy,{'open_now': False},43.63732,-79.64860999999999
105,Steve Joncas,https://smoothcomp.com/en/club/37387,OPERATIONAL,"790 Lasalle Blvd, Greater Sudbury, ON P3A 4V4, Canada",Sudbury Brazilian Jiu-Jitsu,{'open_now': False},46.52222949999999,-80.9643493
106,Scott Boudreau,https://smoothcomp.com/en/club/7740,OPERATIONAL,"3972 Hastings St, Burnaby, BC V5C 6C1, Canada",Budo Martial Arts - Burnaby,{'open_now': False},49.28088229999999,-123.0177076
107,Alex Perez,https://smoothcomp.com/en/club/46957,OPERATIONAL,"2918 Lake Shore Blvd W, Etobicoke, ON M8V 1J4, Canada",Etobicoke BJJ,{'open_now': False},43.6011043,-79.50479109999999
108,,https://smoothcomp.com/en/club/12008,OPERATIONAL,"420 Weber St N F1, Waterloo, ON N2J 2Z3, Canada",Dragan Alliance Brazilian Jiu-Jitsu,{'open_now': False},43.48580279999999,-80.52866019999999
109,James Simon,https://smoothcomp.com/en/club/7522,OPERATIONAL,"101 St Andrew St W #100, Fergus, ON N1M 1N6, Canada",The Vault Coffee and Espresso bar,{'open_now': False},43.7057965,-80.37817419999999
110,,https://smoothcomp.com/en/club/7718,OPERATIONAL,"28 Gateway Dr NE, Airdrie, AB T4B 0J6, Canada",Airdrie Martial Arts Centre,{'open_now': False},51.30324299999999,-114.0101779
111,,https://smoothcomp.com/en/club/7771,,,,,,
112,,https://smoothcomp.com/en/club/7779,OPERATIONAL,"20252 98 Ave #4, Langley Twp, BC V1M 3G1, Canada",Infinity Mixed Martial Arts,{'open_now': False},49.1810722,-122.6611947
113,Kailyn Fewer,https://smoothcomp.com/en/club/7406,OPERATIONAL,"56 Broadway, Denville, NJ 07834, United States",Renzo Gracie Denville,{'open_now': False},40.8920766,-74.4759658
114,,https://smoothcomp.com/en/club/10367,OPERATIONAL,"2722 Allwood St, Abbotsford, BC V2T 3R7, Canada",Mamba Martial Arts Academy,{'open_now': False},49.0515292,-122.3195595
115,,https://smoothcomp.com/en/club/7842,OPERATIONAL,"1326 Main St, North Vancouver, BC V7J 2C3, Canada",Universal MMA,{'open_now': False},49.3068793,-123.0376914
116,,https://smoothcomp.com/en/club/9931,OPERATIONAL,"4800 Rue René-Émard, Pierrefonds, QC H9A 2Y1, Canada",West Island,{'open_now': True},45.4922352,-73.8494517
117,Landon Clements,https://smoothcomp.com/en/club/38901,OPERATIONAL,"2001 Thickson Rd S, Whitby, ON L1N 6J3, Canada",Team DNA BJJ,{'open_now': False},43.8594103,-78.8991722
118,Peter Lahaie,https://smoothcomp.com/en/club/21749,OPERATIONAL,"200 Dundas St E Unit 101, Belleville, ON K8N 1E3, Canada",Patenaude Martial Arts Belleville,{'open_now': False},44.1631795,-77.3696327
119,Erin Chartrand,https://smoothcomp.com/en/club/6838,OPERATIONAL,"389 Park Ave E, Brandon, MB R7A 7A5, Canada",WAMMA Brandon - Academy of Mixed Martial Arts,{'open_now': True},49.830456,-99.9210345
120,,https://smoothcomp.com/en/club/22034,OPERATIONAL,"99 Professors Lake Pkwy, Brampton, ON L6S 4P8, Canada",Metropolitain,,43.7468289,-79.7373336
121,Nate Hogarth,https://smoothcomp.com/en/club/7794,OPERATIONAL,"209 16 Ave NE, Calgary, AB T2E 1J9, Canada",Alavanca Calgary,{'open_now': False},51.06657,-114.0591909
122,Sue Carrique,https://smoothcomp.com/en/club/31620,OPERATIONAL,"142 Commerce Park Dr, Barrie, ON L4N 8W8, Canada",Barrie Brazilian Jiu Jitsu,{'open_now': False},44.3225456,-79.69397049999999
123,Levi Nickerson,https://smoothcomp.com/en/club/7404,OPERATIONAL,"55 Prospect St #105, Brooklyn, NY 11201, United States",Abhaya Yoga Dumbo,{'open_now': False},40.7008099,-73.9880824
124,,https://smoothcomp.com/en/club/31874,,,,,,
125,Marco Costa,https://smoothcomp.com/en/club/38734,,,,,,
126,RUBEN FERNANDO GONZALEZ ROMERO,https://smoothcomp.com/en/club/39537,,,,,,
127,Tim Gane,https://smoothcomp.com/en/club/15123,OPERATIONAL,"306 George St N, Peterborough, ON K9J 8B7, Canada",Eris Martial Arts / 10th Planet Peterborough,{'open_now': False},44.3029675,-78.3194541
128,Rydel Garcia,https://smoothcomp.com/en/club/49962,OPERATIONAL,"417B Huronia Rd, Barrie, ON L4N 9B3, Canada",Lewis' Karate Schools,{'open_now': False},44.3523078,-79.663645
129,,https://smoothcomp.com/en/club/9928,CLOSED_PERMANENTLY,"875 Wilson Rd S, Oshawa, ON L1H 8B1, Canada",Bruckmann Martial Arts,,43.8794431,-78.83277509999999
130,,https://smoothcomp.com/en/club/12031,OPERATIONAL,"12365 Tecumseh Rd E, Windsor, ON N8N 1M5, Canada",Tecumseh Jiu Jitsu | Detroit Jiu Jitsu Syndicate,{'open_now': False},42.31176079999999,-82.8842006
131,Evan Johnson,https://smoothcomp.com/en/club/50890,OPERATIONAL,"Bibi, Chitose, Hokkaido 066-0012, Japan",New Chitose Airport,,42.78410299999999,141.6857217
132,Jeremy Walters,https://smoothcomp.com/en/club/53413,,,,,,
133,,https://smoothcomp.com/en/club/5998,OPERATIONAL,"1581 Rue Denault, Sherbrooke, QC J1H 2R1, Canada",Nomad Brazilian Jiu-Jitsu,{'open_now': False},45.38906619999999,-71.9143423
134,Mark MacGregor,https://smoothcomp.com/en/club/7497,,,,,,
135,,https://smoothcomp.com/en/club/7755,OPERATIONAL,"5637 Riverbend Rd NW, Edmonton, AB T6H 5K4, Canada",Edmonton Gracie Jiu-Jitsu,{'open_now': False},53.494229,-113.5766305
136,Ty Harbour,https://smoothcomp.com/en/club/7756,OPERATIONAL,"85-99 Hazel St, Paterson, NJ 07503, United States",Team Carvalho,,40.8938299,-74.16451280000001
137,Wataru Hyodo,https://smoothcomp.com/en/club/7808,,,,,,
138,,https://smoothcomp.com/en/club/7813,OPERATIONAL,"3163 Kingsway, Vancouver, BC V5R 5K2, Canada",Posener's Pankration/MMA and Muay Thai,{'open_now': False},49.2353903,-123.0382396
139,Scott Jackson,https://smoothcomp.com/en/club/9780,OPERATIONAL,"280 E Main St #114, Newark, DE 19711, United States",Elite Brazilian Jiu Jitsu LLC,{'open_now': False},39.6850042,-75.74160080000001
140,,https://smoothcomp.com/en/club/10122,OPERATIONAL,"15724 Pierrefonds Blvd., Pierrefonds, Quebec H9H 3P6, Canada",West-Island Jiu-Jitsu Ouest De L'île,{'open_now': False},45.4793393,-73.8656434
141,Rebecca Faris,https://smoothcomp.com/en/club/6260,,,,,,
142,Josh Howe,https://smoothcomp.com/en/club/7486,OPERATIONAL,"173 Rodney St, Waterloo, ON N2J 1G4, Canada",Synergy Esthetics,{'open_now': False},43.4652092,-80.50771639999999
143,Ruby MacNeil,https://smoothcomp.com/en/club/16070,OPERATIONAL,"3777 Strandherd Dr, Nepean, ON K2J 4B1, Canada",Barrhaven Martial Arts Centre,{'open_now': False},45.26815240000001,-75.7466046
144,,https://smoothcomp.com/en/club/16096,OPERATIONAL,"1511 Merivale Rd, Nepean, ON K2G 3J3, Canada",Team Bushido MMA Fitness Center,{'open_now': False},45.35730849999999,-75.73665729999999
145,Gabe Sagman,https://smoothcomp.com/en/club/14799,OPERATIONAL,"287 Bridgeland Ave, North York, ON M6A 1Z4, Canada",Absolute BJJ,{'open_now': False},43.723355,-79.4708639
146,Kalen Monkman,https://smoothcomp.com/en/club/6532,OPERATIONAL,"Craig Dr, Kitchener, ON N2B 2J3, Canada",Little Adventurers Independent Daycare,{'open_now': False},43.4505366,-80.45238909999999
147,Adam Svab,https://smoothcomp.com/en/club/14755,OPERATIONAL,"966 Dundas St E unit 12, Mississauga, ON L4Y 4H5, Canada",Core Jiu-Jitsu | Mississauga BJJ & Self Defense,{'open_now': False},43.5998134,-79.59313279999999
148,Marco Costa,https://smoothcomp.com/en/club/38732,OPERATIONAL,"910 High St #15, Peterborough, ON K9J 5R2, Canada",Kawartha Combat,{'open_now': False},44.2876839,-78.333181
149,Ethan Graves,https://smoothcomp.com/en/club/29422,OPERATIONAL,"1095 Central Ave, Albany, NY 12205, United States",Victory Brazilian Jiu-Jitsu,{'open_now': False},42.6884442,-73.7990863
